start=new Date('2022-03-26T00:00:00.000Z').valueOf();
sats=[{"RCS_SIZE":"LARGE","ELEMENT_SET_NO":"999","MEAN_MOTION":"15.76730052","ARG_OF_PERICENTER":"3.0761","REF_FRAME":"TEME","EPHEMERIS_TYPE":"0","OBJECT_ID":"2020-012AY","BSTAR":"0.00001357400000","INCLINATION":"53.0440","NORAD_CAT_ID":"45224","REV_AT_EPOCH":"11859","PERIAPSIS":"336.807","OBJECT_TYPE":"PAYLOAD","OBJECT_NAME":"STARLINK-1214","MEAN_MOTION_DOT":"0.00001563","CLASSIFICATION_TYPE":"U","EPOCH":"2022-03-25T19:27:39.794400","LAUNCH_DATE":"2020-02-17","COUNTRY_CODE":"US","GP_ID":"199669227","CENTER_NAME":"EARTH","FILE":"3373985","TLE_LINE2":"2 45224  53.0440 235.1753 0004328   3.0761 357.0284 15.76730052118594","PERIOD":"91.328","ECCENTRICITY":"0.00043280","DECAY_DATE":null,"TLE_LINE1":"1 45224U 20012AY  22084.81087725  .00001563  00000-0  13574-4 0  9995","MEAN_ANOMALY":"357.0284","TIME_SYSTEM":"UTC","RA_OF_ASC_NODE":"235.1753","SEMIMAJOR_AXIS":"6717.850","MEAN_ELEMENT_THEORY":"SGP4","MEAN_MOTION_DDOT":"0.0000000000000","SITE":"AFETR","APOAPSIS":"342.622"},{"RCS_SIZE":"LARGE","ELEMENT_SET_NO":"999","MEAN_MOTION":"15.06404826","EPHEMERIS_TYPE":"0","OBJECT_ID":"2020-012AZ","REF_FRAME":"TEME","ARG_OF_PERICENTER":"53.8038","BSTAR":"0.00011294000000","NORAD_CAT_ID":"45225","REV_AT_EPOCH":"11753","PERIAPSIS":"545.816","INCLINATION":"53.0556","OBJECT_TYPE":"PAYLOAD","MEAN_MOTION_DOT":"0.00001401","CLASSIFICATION_TYPE":"U","OBJECT_NAME":"STARLINK-1215","CENTER_NAME":"EARTH","EPOCH":"2022-03-25T12:50:03.594048","LAUNCH_DATE":"2020-02-17","COUNTRY_CODE":"US","GP_ID":"199659869","FILE":"3373822","DECAY_DATE":null,"ECCENTRICITY":"0.00019970","TLE_LINE2":"2 45225  53.0556  14.1587 0001997  53.8038 306.3136 15.06404826117538","PERIOD":"95.592","MEAN_ANOMALY":"306.3136","TIME_SYSTEM":"UTC","TLE_LINE1":"1 45225U 20012AZ  22084.53476382  .00001401  00000-0  11294-3 0  9993","RA_OF_ASC_NODE":"14.1587","SEMIMAJOR_AXIS":"6925.334","MEAN_ELEMENT_THEORY":"SGP4","MEAN_MOTION_DDOT":"0.0000000000000","APOAPSIS":"548.582","SITE":"AFETR"},{"RA_OF_ASC_NODE":"14.1348","SEMIMAJOR_AXIS":"6925.354","MEAN_ELEMENT_THEORY":"SGP4","MEAN_MOTION_DDOT":"0.0000000000000","APOAPSIS":"548.442","SITE":"AFETR","LAUNCH_DATE":"2020-02-17","EPOCH":"2022-03-25T13:00:40.470048","COUNTRY_CODE":"US","GP_ID":"199660620","CENTER_NAME":"EARTH","FILE":"3373822","TLE_LINE2":"2 45226  53.0564  14.1348 0001766  59.9124 300.2040 15.06398206117496","PERIOD":"95.592","DECAY_DATE":null,"ECCENTRICITY":"0.00017660","TLE_LINE1":"1 45226U 20012BA  22084.54213507  .00000684  00000-0  64853-4 0  9995","MEAN_ANOMALY":"300.2040","TIME_SYSTEM":"UTC","BSTAR":"0.00006485300000","INCLINATION":"53.0564","NORAD_CAT_ID":"45226","PERIAPSIS":"545.996","REV_AT_EPOCH":"11749","OBJECT_TYPE":"PAYLOAD","MEAN_MOTION_DOT":"0.00000684","OBJECT_NAME":"STARLINK-1217","CLASSIFICATION_TYPE":"U","RCS_SIZE":"LARGE","ELEMENT_SET_NO":"999","MEAN_MOTION":"15.06398206","ARG_OF_PERICENTER":"59.9124","REF_FRAME":"TEME","OBJECT_ID":"2020-012BA","EPHEMERIS_TYPE":"0"},{"MEAN_MOTION_DOT":"-0.00000031","CLASSIFICATION_TYPE":"U","OBJECT_NAME":"STARLINK-1221","OBJECT_TYPE":"PAYLOAD","INCLINATION":"53.0549","PERIAPSIS":"546.066","REV_AT_EPOCH":"11665","NORAD_CAT_ID":"45227","BSTAR":"0.00001684100000","REF_FRAME":"TEME","ARG_OF_PERICENTER":"49.8842","OBJECT_ID":"2020-012BB","EPHEMERIS_TYPE":"0","MEAN_MOTION":"15.06393514","ELEMENT_SET_NO":"999","RCS_SIZE":"LARGE","APOAPSIS":"548.401","SITE":"AFETR","MEAN_MOTION_DDOT":"0.0000000000000","SEMIMAJOR_AXIS":"6925.368","MEAN_ELEMENT_THEORY":"SGP4","RA_OF_ASC_NODE":"12.8375","TLE_LINE1":"1 45227U 20012BB  22084.82964009 -.00000031  00000-0  16841-4 0  9998","MEAN_ANOMALY":"310.2294","TIME_SYSTEM":"UTC","PERIOD":"95.593","TLE_LINE2":"2 45227  53.0549  12.8375 0001686  49.8842 310.2294 15.06393514116657","DECAY_DATE":null,"ECCENTRICITY":"0.00016860","FILE":"3373992","GP_ID":"199669236","COUNTRY_CODE":"US","LAUNCH_DATE":"2020-02-17","EPOCH":"2022-03-25T19:54:40.903776","CENTER_NAME":"EARTH"},{"SEMIMAJOR_AXIS":"6925.347","MEAN_ELEMENT_THEORY":"SGP4","RA_OF_ASC_NODE":"16.1005","APOAPSIS":"548.519","SITE":"AFETR","MEAN_MOTION_DDOT":"0.0000000000000","FILE":"3373822","COUNTRY_CODE":"US","LAUNCH_DATE":"2020-02-17","EPOCH":"2022-03-25T02:29:03.278688","GP_ID":"199660120","CENTER_NAME":"EARTH","TLE_LINE1":"1 45228U 20012BC  22084.10351017 -.00000354  00000-0 -48418-5 0  9994","MEAN_ANOMALY":"302.5282","TIME_SYSTEM":"UTC","TLE_LINE2":"2 45228  53.0554  16.1005 0001888  57.5889 302.5282 15.06400591117401","PERIOD":"95.592","DECAY_DATE":null,"ECCENTRICITY":"0.00018880","INCLINATION":"53.0554","NORAD_CAT_ID":"45228","PERIAPSIS":"545.904","REV_AT_EPOCH":"11740","BSTAR":"-0.00000484180000","CLASSIFICATION_TYPE":"U","MEAN_MOTION_DOT":"-0.00000354","OBJECT_NAME":"STARLINK-1222","OBJECT_TYPE":"PAYLOAD","ELEMENT_SET_NO":"999","RCS_SIZE":"LARGE","ARG_OF_PERICENTER":"57.5889","REF_FRAME":"TEME","OBJECT_ID":"2020-012BC","EPHEMERIS_TYPE":"0","MEAN_MOTION":"15.06400591"},{"MEAN_ANOMALY":"307.2034","TIME_SYSTEM":"UTC","TLE_LINE1":"1 45229U 20012BD  22084.79646832 -.00000186  00000-0  64392-5 0  9993","ECCENTRICITY":"0.00017530","DECAY_DATE":null,"TLE_LINE2":"2 45229  53.0571  13.0022 0001753  52.9115 307.2034 15.06401464116684","PERIOD":"95.592","FILE":"3374065","CENTER_NAME":"EARTH","EPOCH":"2022-03-25T19:06:54.862848","LAUNCH_DATE":"2020-02-17","COUNTRY_CODE":"US","GP_ID":"199670716","APOAPSIS":"548.423","SITE":"AFETR","MEAN_MOTION_DDOT":"0.0000000000000","MEAN_ELEMENT_THEORY":"SGP4","SEMIMAJOR_AXIS":"6925.344","RA_OF_ASC_NODE":"13.0022","OBJECT_ID":"2020-012BD","EPHEMERIS_TYPE":"0","ARG_OF_PERICENTER":"52.9115","REF_FRAME":"TEME","MEAN_MOTION":"15.06401464","ELEMENT_SET_NO":"999","RCS_SIZE":"LARGE","MEAN_MOTION_DOT":"-0.00000186","OBJECT_NAME":"STARLINK-1226","CLASSIFICATION_TYPE":"U","OBJECT_TYPE":"PAYLOAD","NORAD_CAT_ID":"45229","REV_AT_EPOCH":"11668","PERIAPSIS":"545.995","INCLINATION":"53.0571","BSTAR":"0.00000643920000"},{"RA_OF_ASC_NODE":"14.1982","SEMIMAJOR_AXIS":"6925.370","MEAN_ELEMENT_THEORY":"SGP4","MEAN_MOTION_DDOT":"0.0000000000000","SITE":"AFETR","APOAPSIS":"548.387","CENTER_NAME":"EARTH","GP_ID":"199671213","COUNTRY_CODE":"US","LAUNCH_DATE":"2020-02-17","EPOCH":"2022-03-25T12:39:27.201888","FILE":"3374065","DECAY_DATE":null,"ECCENTRICITY":"0.00016640","PERIOD":"95.593","TLE_LINE2":"2 45230  53.0561  14.1982 0001664  50.4709 309.6427 15.06393012116642","MEAN_ANOMALY":"309.6427","TIME_SYSTEM":"UTC","TLE_LINE1":"1 45230U 20012BE  22084.52739817  .00000641  00000-0  61919-4 0  9998","BSTAR":"0.00006191900000","PERIAPSIS":"546.083","REV_AT_EPOCH":"11664","NORAD_CAT_ID":"45230","INCLINATION":"53.0561","OBJECT_TYPE":"PAYLOAD","MEAN_MOTION_DOT":"0.00000641","CLASSIFICATION_TYPE":"U","OBJECT_NAME":"STARLINK-1227","RCS_SIZE":"LARGE","ELEMENT_SET_NO":"999","MEAN_MOTION":"15.06393012","OBJECT_ID":"2020-012BE","EPHEMERIS_TYPE":"0","ARG_OF_PERICENTER":"50.4709","REF_FRAME":"TEME"},{"NORAD_CAT_ID":"45231","PERIAPSIS":"333.722","REV_AT_EPOCH":"11931","INCLINATION":"53.0266","BSTAR":"0.00000740720000","MEAN_MOTION_DOT":"0.00000546","OBJECT_NAME":"STARLINK-1229","CLASSIFICATION_TYPE":"U","OBJECT_TYPE":"PAYLOAD","ELEMENT_SET_NO":"999","RCS_SIZE":"LARGE","OBJECT_ID":"2020-012BF","EPHEMERIS_TYPE":"0","REF_FRAME":"TEME","ARG_OF_PERICENTER":"289.4284","MEAN_MOTION":"15.76730656","MEAN_ELEMENT_THEORY":"SGP4","SEMIMAJOR_AXIS":"6717.848","RA_OF_ASC_NODE":"241.2396","APOAPSIS":"345.704","SITE":"AFETR","MEAN_MOTION_DDOT":"0.0000000000000","FILE":"3373822","CENTER_NAME":"EARTH","LAUNCH_DATE":"2020-02-17","COUNTRY_CODE":"US","EPOCH":"2022-03-25T14:23:38.842368","GP_ID":"199660871","MEAN_ANOMALY":"70.5771","TIME_SYSTEM":"UTC","TLE_LINE1":"1 45231U 20012BF  22084.59975512  .00000546  00000-0  74072-5 0  9999","DECAY_DATE":null,"ECCENTRICITY":"0.00089180","TLE_LINE2":"2 45231  53.0266 241.2396 0008918 289.4284  70.5771 15.76730656119317","PERIOD":"91.328"},{"ELEMENT_SET_NO":"999","RCS_SIZE":"LARGE","REF_FRAME":"TEME","ARG_OF_PERICENTER":"58.5041","OBJECT_ID":"2020-012BG","EPHEMERIS_TYPE":"0","MEAN_MOTION":"15.06408744","INCLINATION":"53.0558","PERIAPSIS":"545.879","REV_AT_EPOCH":"11758","NORAD_CAT_ID":"45232","BSTAR":"0.00017464000000","MEAN_MOTION_DOT":"0.00002321","CLASSIFICATION_TYPE":"U","OBJECT_NAME":"STARLINK-1235","OBJECT_TYPE":"PAYLOAD","FILE":"3373822","GP_ID":"199659620","LAUNCH_DATE":"2020-02-17","COUNTRY_CODE":"US","EPOCH":"2022-03-25T12:55:21.515808","CENTER_NAME":"EARTH","TLE_LINE1":"1 45232U 20012BG  22084.53844347  .00002321  00000-0  17464-3 0  9998","MEAN_ANOMALY":"301.6133","TIME_SYSTEM":"UTC","PERIOD":"95.592","TLE_LINE2":"2 45232  53.0558  14.1481 0001888  58.5041 301.6133 15.06408744117589","ECCENTRICITY":"0.00018880","DECAY_DATE":null,"SEMIMAJOR_AXIS":"6925.322","MEAN_ELEMENT_THEORY":"SGP4","RA_OF_ASC_NODE":"14.1481","APOAPSIS":"548.494","SITE":"AFETR","MEAN_MOTION_DDOT":"0.0000000000000"},{"OBJECT_TYPE":"PAYLOAD","MEAN_MOTION_DOT":"-0.00000779","OBJECT_NAME":"STARLINK-1238","CLASSIFICATION_TYPE":"U","BSTAR":"-0.00003336800000","NORAD_CAT_ID":"45233","REV_AT_EPOCH":"11729","PERIAPSIS":"546.085","INCLINATION":"53.0566","MEAN_MOTION":"15.06399151","OBJECT_ID":"2020-012BH","EPHEMERIS_TYPE":"0","ARG_OF_PERICENTER":"60.0287","REF_FRAME":"TEME","RCS_SIZE":"LARGE","ELEMENT_SET_NO":"999","MEAN_MOTION_DDOT":"0.0000000000000","SITE":"AFETR","APOAPSIS":"548.348","RA_OF_ASC_NODE":"33.9568","MEAN_ELEMENT_THEORY":"SGP4","SEMIMAJOR_AXIS":"6925.351","DECAY_DATE":null,"ECCENTRICITY":"0.00016340","TLE_LINE2":"2 45233  53.0566  33.9568 0001634  60.0287 300.0864 15.06399151117296","PERIOD":"95.592","TIME_SYSTEM":"UTC","MEAN_ANOMALY":"300.0864","TLE_LINE1":"1 45233U 20012BH  22084.58452533 -.00000779  00000-0 -33368-4 0  9995","CENTER_NAME":"EARTH","LAUNCH_DATE":"2020-02-17","COUNTRY_CODE":"US","EPOCH":"2022-03-25T14:01:42.988512","GP_ID":"199659870","FILE":"3373822"}];
